From: horizons@ssd.jpl.nasa.gov (Horizons Ephemeris System)
Subject: [Horizons] SMALL BODY #C(500@10)_T(323P/SOHO) (1/1)
Date: February 4, 2021 at 3:23:58 PM PST

Automated mail xmit by PORT_LOGIN, PID= 15228 Thu Feb  4 15:23:58 2021
++++++++++++++++++++++++++++++++ (part 1 of 1)  +++++++++++++++++++++++++++++++
*******************************************************************************
Ephemeris / PORT_LOGIN Thu Feb  4 15:23:46 2021 Pasadena, USA    / Horizons
*******************************************************************************
Target body name: 323P/SOHO                       {source: JPL#7}
Center body name: Sun (10)                        {source: DE431}
Center-site name: BODY CENTER
*******************************************************************************
Start time      : A.D. 2025-Jan-01 00:00:00.0000 TDB
Stop  time      : A.D. 2029-Jul-01 00:00:00.0000 TDB
Step-size       : 20160 minutes
*******************************************************************************
Center geodetic : 0.00000000,0.00000000,0.0000000 {E-lon(deg),Lat(deg),Alt(km)}
Center cylindric: 0.00000000,0.00000000,0.0000000 {E-lon(deg),Dxy(km),Dz(km)}
Center radii    : 696000.0 x 696000.0 x 696000.0 k{Equator, meridian, pole}    
Small perturbers: Yes                             {source: SB431-N16}
Output units    : AU-D
Output type     : GEOMETRIC cartesian states
Output format   : 3 (position, velocity, LT, range, range-rate)
Reference frame : Ecliptic of J2000.0
*******************************************************************************
Initial IAU76/J2000 heliocentric ecliptic osculating elements (au, days, deg.):
 EPOCH=  2454625.5 ! 2008-Jun-08.0000000 (TDB)    RMSW= n.a.                  
  EC= .9817284048892368   QR= .047698669757255    TP= 2454617.8269341858      
  OM= 322.1822742254121   W= 355.0741626256408    IN= 6.485264440642934       
 Equivalent ICRF heliocentric equatorial cartesian coordinates (au, au/d):
  X=-4.786874634897903E-02  Y= 3.314353560540885E-01  Z= 1.767004126010600E-01
 VX=-1.830018841639429E-02 VY= 2.990916383298679E-02 VZ= 1.484057501953457E-02
Comet physical (GM= km^3/s^2; RAD= km):                                        
  GM= n.a.                RAD= n.a.                                           
  M1=  n.a.     M2=  n.a.     k1= n.a.    k2= n.a.     PHCOF= n.a.            
*******************************************************************************
           JDTDB,            Calendar Date (TDB),                      X,                      Y,                      Z,                     VX,                     VY,                     VZ,                     LT,                     RG,                     RR,
**************************************************************************************************************************************************************************************************************************************************************************
$$SOE
2462132.500000000, A.D. 2028-Dec-27 00:00:00.0000, -2.433196899067652E+00,  1.578676061964872E+00, -3.215516669411667E-03,  6.878370928498985E-03, -6.589253751676807E-03, -8.725333349786257E-05,  1.675166725345547E-02,  2.900461273280648E+00, -9.356597056923014E-03,
2462146.500000000, A.D. 2029-Jan-10 00:00:00.0000, -2.333910991157615E+00,  1.484498960550188E+00, -4.432509540002765E-03,  7.312619457148395E-03, -6.868376599979994E-03, -8.654937271534038E-05,  1.597523125088284E-02,  2.766025546820154E+00, -9.856278171020659E-03,
2462160.500000000, A.D. 2029-Jan-24 00:00:00.0000, -2.228217255316954E+00,  1.386246162767632E+00, -5.637181090918482E-03,  7.795459241135855E-03, -7.172258757094807E-03, -8.547592359688292E-05,  1.515637567420959E-02,  2.624245098783812E+00, -1.040756869242720E-02,
2462174.500000000, A.D. 2029-Feb-07 00:00:00.0000, -2.115356802883058E+00,  1.283535782640393E+00, -6.823534541561468E-03,  8.338733985091782E-03, -7.506185826610222E-03, -8.390758593613230E-05,  1.429046371992881E-02,  2.474317091531633E+00, -1.102254974086809E-02,
2462188.500000000, A.D. 2029-Feb-21 00:00:00.0000, -1.994374972475910E+00,  1.175900015983479E+00, -7.983440336330040E-03,  8.958899458144241E-03, -7.877260270392325E-03, -8.166037923032149E-05,  1.337171088225185E-02,  2.315239968933639E+00, -1.171784513544022E-02,
2462202.500000000, A.D. 2029-Mar-07 00:00:00.0000, -1.864039932118195E+00,  1.062753973283080E+00, -9.105560657050173E-03,  9.679668567577474E-03, -8.295298485867174E-03, -7.845090042951824E-05,  1.239272522874398E-02,  2.145733857563667E+00, -1.251713288251024E-02,
2462216.500000000, A.D. 2029-Mar-21 00:00:00.0000, -1.722711048538498E+00,  9.433478214986739E-01, -1.017347762412478E-02,  1.053680133689235E-02, -8.774385814098860E-03, -7.381921713818430E-05,  1.134377371224223E-02,  1.964113532545885E+00, -1.345564316214878E-02,
2462230.500000000, A.D. 2029-Apr-04 00:00:00.0000, -1.568112227504587E+00,  8.166892793124303E-01, -1.116224570727833E-02,  1.158750130901345E-02, -9.335706561835433E-03, -6.696882962464992E-05,  1.021153769517209E-02,  1.768072943269730E+00, -1.458883612715353E-02,
2462244.500000000, A.D. 2029-Apr-18 00:00:00.0000, -1.396908497368939E+00,  6.814099415799663E-01, -1.203145604475261E-02,  1.293080507763748E-02, -1.001309914192928E-02, -5.639293218601537E-05,  8.976830778166023E-03,  1.554290067664371E+00, -1.601084560774439E-02,
2462258.500000000, A.D. 2029-May-02 00:00:00.0000, -1.203822201701758E+00,  5.355151504800516E-01, -1.270942831321477E-02,  1.475846696959845E-02, -1.086514205581785E-02, -3.885703020320381E-05,  7.609945991893987E-03,  1.317621303437292E+00, -1.789931938101494E-02,
2462272.500000000, A.D. 2029-May-16 00:00:00.0000, -9.794591715254756E-01,  3.758616425028252E-01, -1.305011057074363E-02,  1.751188584416996E-02, -1.200502973539907E-02, -5.935882049750569E-06,  6.059568991190288E-03,  1.049181847143860E+00, -2.064878456530726E-02,
2462286.500000000, A.D. 2029-May-30 00:00:00.0000, -7.032717977734502E-01,  1.969146052375967E-01, -1.267334986760572E-02,  2.257746277939441E-02, -1.368213208766149E-02,  7.363853644698940E-05,  4.218608740243744E-03,  7.304294607258430E-01, -2.542783214871687E-02,
2462300.500000000, A.D. 2029-Jun-13 00:00:00.0000, -3.006874450778171E-01, -1.092571383492310E-02, -9.724640817758971E-03,  4.004964007138897E-02, -1.576007074918367E-02,  5.159041040545270E-04,  1.738679284859886E-03,  3.010429861153758E-01, -3.944702735537408E-02,
2462314.500000000, A.D. 2029-Jun-27 00:00:00.0000, -6.862757096778631E-02,  4.008509056657190E-01,  1.604032724015282E-02, -1.833780803069522E-02,  3.168260913771507E-02,  8.714006007240299E-04,  2.350632300944174E-03,  4.069993662991835E-01,  3.433042038018318E-02,
